*******************************************************************************
Ephemeris / WWW_USER Tue Oct 30 23:11:10 2018 Pasadena, USA      / Horizons    
*******************************************************************************
Target body name: James Webb Space Telescope (spacecraft) (-170) {source: jwst_2_out}
Center body name: Earth (399)                     {source: DE431mx}
Center-site name: GEOCENTRIC
*******************************************************************************
Start time      : A.D. 2024-Jan-01 00:00:00.0000 UT      
Stop  time      : A.D. 2024-Apr-30 00:00:00.0000 UT      
Step-size       : 1440 minutes
*******************************************************************************
Target pole/equ : No model available
Target radii    : (unavailable)                                                
Center geodetic : 0.00000000,0.00000000,0.0000000 {E-lon(deg),Lat(deg),Alt(km)}
Center cylindric: 0.00000000,0.00000000,0.0000000 {E-lon(deg),Dxy(km),Dz(km)}
Center pole/equ : High-precision EOP model        {East-longitude positive}
Center radii    : 6378.1 x 6378.1 x 6356.8 km     {Equator, meridian, pole}    
Target primary  : Earth
Vis. interferer : MOON (R_eq= 1737.400) km        {source: DE431mx}
Rel. light bend : Sun, EARTH                      {source: DE431mx}
Rel. lght bnd GM: 1.3271E+11, 3.9860E+05 km^3/s^2                              
Atmos refraction: NO (AIRLESS)
RA format       : HMS
Time format     : CAL 
EOP file        : eop.181030.p190121                                           
EOP coverage    : DATA-BASED 1962-JAN-20 TO 2018-OCT-30. PREDICTS-> 2019-JAN-20
Units conversion: 1 au= 149597870.700 km, c= 299792.458 km/s, 1 day= 86400.0 s 
Table cut-offs 1: Elevation (-90.0deg=NO ),Airmass (>38.000=NO), Daylight (NO )
Table cut-offs 2: Solar elongation (  0.0,180.0=NO ),Local Hour Angle( 0.0=NO )
Table cut-offs 3: RA/DEC angular rate (     0.0=NO )                           
************************************************************************************************
 Date__(UT)__HR:MN     R.A._(ICRF/J2000.0)_DEC            delta      deldot    S-O-T /r    S-T-O
************************************************************************************************
$$SOE
 2024-Jan-01 00:00     07 12 36.96 +35 32 18.6 0.00823807836115   0.0197902 165.9019 /L  13.9822
 2024-Jan-02 00:00     07 23 31.07 +35 03 59.3 0.00825103174212   0.0259815 165.5073 /L  14.3734
 2024-Jan-03 00:00     07 34 10.27 +34 31 41.5 0.00826746520322   0.0317145 165.0476 /L  14.8292
 2024-Jan-04 00:00     07 44 32.94 +33 55 41.6 0.00828743107602   0.0377163 164.5351 /L  15.3373
 2024-Jan-05 00:00     07 54 37.67 +33 16 17.4 0.00831093710846   0.0436699 163.9821 /L  15.8854
 2024-Jan-06 00:00     08 04 23.45 +32 33 47.6 0.00833801004270   0.0497227 163.3999 /L  16.4625
 2024-Jan-07 00:00     08 13 49.54 +31 48 31.0 0.00836868075775   0.0562342 162.7988 /L  17.0583
 2024-Jan-08 00:00     08 22 55.50 +31 00 46.3 0.00840297783114   0.0622856 162.1877 /L  17.6639
 2024-Jan-09 00:00     08 31 41.20 +30 10 51.6 0.00844094339790   0.0688002 161.5742 /L  18.2717
 2024-Jan-10 00:00     08 40 06.78 +29 19 04.4 0.00848261316842   0.0756547 160.9646 /L  18.8756
 2024-Jan-11 00:00     08 48 12.64 +28 25 40.9 0.00852801141338   0.0817851 160.3637 /L  19.4709
 2024-Jan-12 00:00     08 55 59.42 +27 30 55.9 0.00857712511648   0.0884338 159.7748 /L  20.0540
 2024-Jan-13 00:00     09 03 27.94 +26 35 03.1 0.00862988317651   0.0947022 159.2004 /L  20.6227
 2024-Jan-14 00:00     09 10 39.11 +25 38 14.6 0.00868614007482   0.1004350 158.6419 /L  21.1755
 2024-Jan-15 00:00     09 17 33.92 +24 40 41.6 0.00874566649113   0.1057576 158.1001 /L  21.7116
 2024-Jan-16 00:00     09 24 13.32 +23 42 34.4 0.00880815222678   0.1105546 157.5755 /L  22.2306
 2024-Jan-17 00:00     09 30 38.18 +22 44 02.4 0.00887322274321   0.1147906 157.0684 /L  22.7320
 2024-Jan-18 00:00     09 36 49.28 +21 45 14.5 0.00894045896163   0.1177578 156.5794 /L  23.2155
 2024-Jan-19 00:00     09 42 47.32 +20 46 19.0 0.00900941758647   0.1205407 156.1092 /L  23.6803
 2024-Jan-20 00:00     09 48 32.85 +19 47 23.9 0.00907964709117   0.1226060 155.6584 /L  24.1256
 2024-Jan-21 00:00     09 54 06.36 +18 48 36.6 0.00915070372914   0.1238861 155.2282 /L  24.5505
 2024-Jan-22 00:00     09 59 28.24 +17 50 03.9 0.00922215680198   0.1240746 154.8197 /L  24.9539
 2024-Jan-23 00:00     10 04 38.84 +16 51 52.6 0.00929360263716   0.1237303 154.4342 /L  25.3345
 2024-Jan-24 00:00     10 09 38.42 +15 54 08.7 0.00936465844579   0.1225100 154.0729 /L  25.6910
 2024-Jan-25 00:00     10 14 27.21 +14 56 57.9 0.00943498670026   0.1208336 153.7371 /L  26.0221
 2024-Jan-26 00:00     10 19 05.42 +14 00 25.3 0.00950428626653   0.1189196 153.4283 /L  26.3266
 2024-Jan-27 00:00     10 23 33.22 +13 04 35.9 0.00957228406164   0.1165671 153.1475 /L  26.6032
 2024-Jan-28 00:00     10 27 50.78 +12 09 33.9 0.00963877363334   0.1136556 152.8959 /L  26.8509
 2024-Jan-29 00:00     10 31 58.24 +11 15 23.2 0.00970358464038   0.1106104 152.6746 /L  27.0686
 2024-Jan-30 00:00     10 35 55.75 +10 22 07.6 0.00976661156369   0.1075420 152.4844 /L  27.2555
 2024-Jan-31 00:00     10 39 43.45 +09 29 50.3 0.00982777981578   0.1042309 152.3262 /L  27.4108
 2024-Feb-01 00:00     10 43 21.46 +08 38 34.3 0.00988706552226   0.1015138 152.2007 /L  27.5337
 2024-Feb-02 00:00     10 46 49.91 +07 48 22.3 0.00994451299772   0.0982052 152.1084 /L  27.6236
 2024-Feb-03 00:00     10 50 08.91 +06 59 17.0 0.01000016548488   0.0952124 152.0499 /L  27.6802
 2024-Feb-04 00:00     10 53 18.60 +06 11 20.7 0.01005412960989   0.0923728 152.0256 /L  27.7028
 2024-Feb-05 00:00     10 56 19.13 +05 24 35.4 0.01010657457119   0.0894961 152.0356 /L  27.6916
 2024-Feb-06 00:00     10 59 10.69 +04 39 02.9 0.01015769742957   0.0873578 152.0797 /L  27.6465
 2024-Feb-07 00:00     11 01 53.54 +03 54 44.1 0.01020775568518   0.0858044 152.1576 /L  27.5681
 2024-Feb-08 00:00     11 04 28.03 +03 11 39.7 0.01025704057543   0.0845014 152.2683 /L  27.4572
 2024-Feb-09 00:00     11 06 54.59 +02 29 49.1 0.01030584937287   0.0840130 152.4102 /L  27.3152
 2024-Feb-10 00:00     11 09 13.78 +01 49 11.1 0.01035446870704   0.0841166 152.5814 /L  27.1444
 2024-Feb-11 00:00     11 11 26.24 +01 09 43.2 0.01040311763567   0.0844897 152.7793 /L  26.9471
 2024-Feb-12 00:00     11 13 32.70 +00 31 22.3 0.01045192306405   0.0850342 153.0010 /L  26.7263
 2024-Feb-13 00:00     11 15 33.84 -00 05 55.3 0.01050090183985   0.0848732 153.2433 /L  26.4850
 2024-Feb-14 00:00     11 17 30.36 -00 42 13.4 0.01054995449527   0.0846764 153.5035 /L  26.2261
 2024-Feb-15 00:00     11 19 22.82 -01 17 35.7 0.01059888726999   0.0846483 153.7789 /L  25.9521
 2024-Feb-16 00:00     11 21 11.69 -01 52 05.3 0.01064743933221   0.0838965 154.0675 /L  25.6651
 2024-Feb-17 00:00     11 22 57.34 -02 25 44.9 0.01069532580775   0.0819592 154.3675 /L  25.3669
 2024-Feb-18 00:00     11 24 40.02 -02 58 36.4 0.01074223005945   0.0803385 154.6778 /L  25.0586
 2024-Feb-19 00:00     11 26 19.89 -03 30 41.4 0.01078785121975   0.0778734 154.9973 /L  24.7411
 2024-Feb-20 00:00     11 27 57.04 -04 02 00.8 0.01083189860303   0.0745355 155.3258 /L  24.4149
 2024-Feb-21 00:00     11 29 31.48 -04 32 35.0 0.01087410516563   0.0708445 155.6628 /L  24.0803
 2024-Feb-22 00:00     11 31 03.19 -05 02 24.0 0.01091423229734   0.0674089 156.0083 /L  23.7373
 2024-Feb-23 00:00     11 32 32.10 -05 31 27.5 0.01095207430284   0.0633702 156.3625 /L  23.3859
 2024-Feb-24 00:00     11 33 58.08 -05 59 44.8 0.01098746227359   0.0590791 156.7254 /L  23.0258
 2024-Feb-25 00:00     11 35 21.02 -06 27 14.9 0.01102026925959   0.0547688 157.0975 /L  22.6569
 2024-Feb-26 00:00     11 36 40.76 -06 53 56.6 0.01105041404966   0.0498759 157.4790 /L  22.2786
 2024-Feb-27 00:00     11 37 57.15 -07 19 48.3 0.01107786526946   0.0456316 157.8703 /L  21.8908
 2024-Feb-28 00:00     11 39 10.04 -07 44 48.4 0.01110264326065   0.0405924 158.2715 /L  21.4933
 2024-Feb-29 00:00     11 40 19.27 -08 08 55.1 0.01112482129501   0.0361620 158.6830 /L  21.0857
 2024-Mar-01 00:00     11 41 24.71 -08 32 06.5 0.01114452462111   0.0323702 159.1046 /L  20.6680
 2024-Mar-02 00:00     11 42 26.24 -08 54 20.4 0.01116192882363   0.0284200 159.5365 /L  20.2404
 2024-Mar-03 00:00     11 43 23.76 -09 15 34.8 0.01117726186707   0.0247439 159.9783 /L  19.8030
 2024-Mar-04 00:00     11 44 17.23 -09 35 47.7 0.01119079972656   0.0219843 160.4295 /L  19.3563
 2024-Mar-05 00:00     11 45 06.65 -09 54 57.1 0.01120287348723   0.0199852 160.8892 /L  18.9012
 2024-Mar-06 00:00     11 45 52.10 -10 13 01.5 0.01121385532383   0.0185396 161.3563 /L  18.4389
 2024-Mar-07 00:00     11 46 33.79 -10 30 00.0 0.01122416220523   0.0176897 161.8290 /L  17.9712
 2024-Mar-08 00:00     11 47 12.00 -10 45 52.2 0.01123421858873   0.0173150 162.3049 /L  17.5002
 2024-Mar-09 00:00     11 47 47.18 -11 00 39.2 0.01124443986729   0.0175925 162.7811 /L  17.0289
 2024-Mar-10 00:00     11 48 19.90 -11 14 23.2 0.01125518186914   0.0188513 163.2541 /L  16.5609
 2024-Mar-11 00:00     11 48 50.80 -11 27 07.4 0.01126669452742   0.0208454 163.7198 /L  16.1001
 2024-Mar-12 00:00     11 49 20.59 -11 38 56.4 0.01127910429806   0.0222468 164.1738 /L  15.6508
 2024-Mar-13 00:00     11 49 49.94 -11 49 55.0 0.01129239261936   0.0233246 164.6120 /L  15.2173
 2024-Mar-14 00:00     11 50 19.46 -12 00 08.3 0.01130641405449   0.0246566 165.0302 /L  14.8034
 2024-Mar-15 00:00     11 50 49.65 -12 09 41.1 0.01132093134975   0.0253993 165.4247 /L  14.4131
 2024-Mar-16 00:00     11 51 20.88 -12 18 37.3 0.01133564945853   0.0256097 165.7922 /L  14.0494
 2024-Mar-17 00:00     11 51 53.42 -12 27 00.5 0.01135024786210   0.0252709 166.1299 /L  13.7152
 2024-Mar-18 00:00     11 52 27.43 -12 34 53.1 0.01136440526577   0.0238775 166.4355 /L  13.4128
 2024-Mar-19 00:00     11 53 03.01 -12 42 17.2 0.01137781520667   0.0218875 166.7067 /T  13.1444
